TDRS 3                  
1 19548U 88091B   22228.34053133 -.00000311  00000+0  00000+0 0  9995
2 19548  13.6709 350.8464 0033023 327.5144  80.1362  1.00271229111346
HST                     
1 20580U 90037B   22228.42974436  .00001989  00000+0  10610-3 0  9996
2 20580  28.4695 131.3295 0002438 324.2184 201.6262 15.10763406575296
TDRS 5                  
1 21639U 91054B   22229.14439742  .00000073  00000+0  00000+0 0  9999
2 21639  14.2327   4.1681 0023013   3.4947 202.1282  1.00271933113668
TDRS 6                  
1 22314U 93003B   22228.86437472 -.00000306  00000+0  00000+0 0  9992
2 22314  14.1346   7.4142 0011783 126.9159  96.2894  1.00273764108360
TDRS 7                  
1 23613U 95035B   22228.06833970 -.00000215  00000+0  00000+0 0  9996
2 23613  13.9549 358.1140 0027755  57.9411  17.8305  1.00272975 99200
ISS (ZARYA)             
1 25544U 98067A   22229.84531448  .00005576  00000+0  10482-3 0  9994
2 25544  51.6430  31.1298 0005525 133.1079   8.5802 15.50214236354741
LANDSAT 7               
1 25682U 99020A   22229.77826904  .00000220  00000+0  55373-4 0  9993
2 25682  97.9750 275.5223 0001128  83.7450 276.3880 14.59786052241511
TERRA                   
1 25994U 99068A   22229.51965664  .00000252  00000+0  65832-4 0  9996
2 25994  98.1335 300.0294 0001621  89.3329 327.5921 14.57138068205517
TDRS 8                  
1 26388U 00034A   22228.50884330 -.00000247  00000+0  00000+0 0  9993
2 26388  10.4592  42.1292 0019266 352.4312 202.7860  1.00268428 81133
TIMED                   
1 26998U 01055B   22229.19336535  .00000677  00000+0  76435-4 0  9995
2 26998  74.0730 158.6312 0001311 304.8476  55.2582 14.88751485122183
TDRS 9                  
1 27389U 02011A   22228.42040911 -.00000301  00000+0  00000+0 0  9993
2 27389   9.1432  60.2637 0022041 300.9311  52.6973  1.00270122 76392
AQUA                    
1 27424U 02022A   22229.54079122  .00000450  00000+0  10942-3 0  9999
2 27424  98.2491 170.8614 0001962  69.6224  41.1692 14.57356402 79127
TDRS 10                 
1 27566U 02055A   22229.14297906  .00000077  00000+0  00000+0 0  9995
2 27566   8.3101  49.6192 0006609 354.3415 161.8763  1.00271037 72189
SORCE                   
1 27651U 03004A   22229.46060260  .00000912  00000+0  10637-3 0  9990
2 27651  39.9940 236.8146 0023183 184.5457 175.5125 14.90039659 62198
AURA                    
1 28376U 04026A   22228.85678325  .00000421  00000+0  10348-3 0  9993
2 28376  98.2109 171.3307 0001581  81.4402 278.6976 14.57114957962021
SWIFT                   
1 28485U 04047A   22229.15471370  .00002968  00000+0  16405-3 0  9990
2 28485  20.5558 244.1675 0010456 350.2947   9.7284 15.06716364972792
THEMIS A                
1 30580U 07004A   22228.31241726 -.00000532  00000+0  36901-1 0  9999
2 30580  13.8710 339.4483 8380827 177.5948 195.4502  0.87836304 53653
