[{"OBJECT_NAME":"TDRS 3","OBJECT_ID":"1988-091B","EPOCH":"2022-08-16T08:10:21.906912","MEAN_MOTION":1.00271229,"ECCENTRICITY":0.0033023,"INCLINATION":13.6709,"RA_OF_ASC_NODE":350.8464,"ARG_OF_PERICENTER":327.5144,"MEAN_ANOMALY":80.1362,"EPHEMERIS_TYPE":0,"CLASSIFICATION_TYPE":"U","NORAD_CAT_ID":19548,"ELEMENT_SET_NO":999,"REV_AT_EPOCH":11134,"BSTAR":0,"MEAN_MOTION_DOT":-3.11e-6,"MEAN_MOTION_DDOT":0},{"OBJECT_NAME":"HST","OBJECT_ID":"1990-037B","EPOCH":"2022-08-16T10:18:49.912704","MEAN_MOTION":15.10763406,"ECCENTRICITY":0.0002438,"INCLINATION":28.4695,"RA_OF_ASC_NODE":131.3295,"ARG_OF_PERICENTER":324.2184,"MEAN_ANOMALY":201.6262,"EPHEMERIS_TYPE":0,"CLASSIFICATION_TYPE":"U","NORAD_CAT_ID":20580,"ELEMENT_SET_NO":999,"REV_AT_EPOCH":57529,"BSTAR":0.0001061,"MEAN_MOTION_DOT":1.989e-5,"MEAN_MOTION_DDOT":0},{"OBJECT_NAME":"TDRS 5","OBJECT_ID":"1991-054B","EPOCH":"2022-08-17T03:27:55.937088","MEAN_MOTION":1.00271933,"ECCENTRICITY":0.0023013,"INCLINATION":14.2327,"RA_OF_ASC_NODE":4.1681,"ARG_OF_PERICENTER":3.4947,"MEAN_ANOMALY":202.1282,"EPHEMERIS_TYPE":0,"CLASSIFICATION_TYPE":"U","NORAD_CAT_ID":21639,"ELEMENT_SET_NO":999,"REV_AT_EPOCH":11366,"BSTAR":0,"MEAN_MOTION_DOT":7.3e-7,"MEAN_MOTION_DDOT":0},{"OBJECT_NAME":"TDRS 6","OBJECT_ID":"1993-003B","EPOCH":"2022-08-16T20:44:41.975808","MEAN_MOTION":1.00273764,"ECCENTRICITY":0.0011783,"INCLINATION":14.1346,"RA_OF_ASC_NODE":7.4142,"ARG_OF_PERICENTER":126.9159,"MEAN_ANOMALY":96.2894,"EPHEMERIS_TYPE":0,"CLASSIFICATION_TYPE":"U","NORAD_CAT_ID":22314,"ELEMENT_SET_NO":999,"REV_AT_EPOCH":10836,"BSTAR":0,"MEAN_MOTION_DOT":-3.06e-6,"MEAN_MOTION_DDOT":0},{"OBJECT_NAME":"TDRS 7","OBJECT_ID":"1995-035B","EPOCH":"2022-08-16T01:38:24.550080","MEAN_MOTION":1.00272975,"ECCENTRICITY":0.0027755,"INCLINATION":13.9549,"RA_OF_ASC_NODE":358.114,"ARG_OF_PERICENTER":57.9411,"MEAN_ANOMALY":17.8305,"EPHEMERIS_TYPE":0,"CLASSIFICATION_TYPE":"U","NORAD_CAT_ID":23613,"ELEMENT_SET_NO":999,"REV_AT_EPOCH":9920,"BSTAR":0,"MEAN_MOTION_DOT":-2.15e-6,"MEAN_MOTION_DDOT":0},{"OBJECT_NAME":"ISS (ZARYA)","OBJECT_ID":"1998-067A","EPOCH":"2022-08-17T20:17:15.171072","MEAN_MOTION":15.50214236,"ECCENTRICITY":0.0005525,"INCLINATION":51.643,"RA_OF_ASC_NODE":31.1298,"ARG_OF_PERICENTER":133.1079,"MEAN_ANOMALY":8.5802,"EPHEMERIS_TYPE":0,"CLASSIFICATION_TYPE":"U","NORAD_CAT_ID":25544,"ELEMENT_SET_NO":999,"REV_AT_EPOCH":35474,"BSTAR":0.00010482,"MEAN_MOTION_DOT":5.576e-5,"MEAN_MOTION_DDOT":0},{"OBJECT_NAME":"LANDSAT 7","OBJECT_ID":"1999-020A","EPOCH":"2022-08-17T18:40:42.445056","MEAN_MOTION":14.59786052,"ECCENTRICITY":0.0001128,"INCLINATION":97.975,"RA_OF_ASC_NODE":275.5223,"ARG_OF_PERICENTER":83.745,"MEAN_ANOMALY":276.388,"EPHEMERIS_TYPE":0,"CLASSIFICATION_TYPE":"U","NORAD_CAT_ID":25682,"ELEMENT_SET_NO":999,"REV_AT_EPOCH":24151,"BSTAR":5.5373e-5,"MEAN_MOTION_DOT":2.2e-6,"MEAN_MOTION_DDOT":0},{"OBJECT_NAME":"TERRA","OBJECT_ID":"1999-068A","EPOCH":"2022-08-17T12:28:18.333696","MEAN_MOTION":14.57138068,"ECCENTRICITY":0.0001621,"INCLINATION":98.1335,"RA_OF_ASC_NODE":300.0294,"ARG_OF_PERICENTER":89.3329,"MEAN_ANOMALY":327.5921,"EPHEMERIS_TYPE":0,"CLASSIFICATION_TYPE":"U","NORAD_CAT_ID":25994,"ELEMENT_SET_NO":999,"REV_AT_EPOCH":20551,"BSTAR":6.5832e-5,"MEAN_MOTION_DOT":2.52e-6,"MEAN_MOTION_DDOT":0},{"OBJECT_NAME":"TDRS 8","OBJECT_ID":"2000-034A","EPOCH":"2022-08-16T12:12:44.061120","MEAN_MOTION":1.00268428,"ECCENTRICITY":0.0019266,"INCLINATION":10.4592,"RA_OF_ASC_NODE":42.1292,"ARG_OF_PERICENTER":352.4312,"MEAN_ANOMALY":202.786,"EPHEMERIS_TYPE":0,"CLASSIFICATION_TYPE":"U","NORAD_CAT_ID":26388,"ELEMENT_SET_NO":999,"REV_AT_EPOCH":8113,"BSTAR":0,"MEAN_MOTION_DOT":-2.47e-6,"MEAN_MOTION_DDOT":0},{"OBJECT_NAME":"TIMED","OBJECT_ID":"2001-055B","EPOCH":"2022-08-17T04:38:26.766240","MEAN_MOTION":14.88751485,"ECCENTRICITY":0.0001311,"INCLINATION":74.073,"RA_OF_ASC_NODE":158.6312,"ARG_OF_PERICENTER":304.8476,"MEAN_ANOMALY":55.2582,"EPHEMERIS_TYPE":0,"CLASSIFICATION_TYPE":"U","NORAD_CAT_ID":26998,"ELEMENT_SET_NO":999,"REV_AT_EPOCH":12218,"BSTAR":7.6435e-5,"MEAN_MOTION_DOT":6.77e-6,"MEAN_MOTION_DDOT":0},{"OBJECT_NAME":"TDRS 9","OBJECT_ID":"2002-011A","EPOCH":"2022-08-16T10:05:23.347104","MEAN_MOTION":1.00270122,"ECCENTRICITY":0.0022041,"INCLINATION":9.1432,"RA_OF_ASC_NODE":60.2637,"ARG_OF_PERICENTER":300.9311,"MEAN_ANOMALY":52.6973,"EPHEMERIS_TYPE":0,"CLASSIFICATION_TYPE":"U","NORAD_CAT_ID":27389,"ELEMENT_SET_NO":999,"REV_AT_EPOCH":7639,"BSTAR":0,"MEAN_MOTION_DOT":-3.01e-6,"MEAN_MOTION_DDOT":0},{"OBJECT_NAME":"AQUA","OBJECT_ID":"2002-022A","EPOCH":"2022-08-17T12:58:44.361408","MEAN_MOTION":14.57356402,"ECCENTRICITY":0.0001962,"INCLINATION":98.2491,"RA_OF_ASC_NODE":170.8614,"ARG_OF_PERICENTER":69.6224,"MEAN_ANOMALY":41.1692,"EPHEMERIS_TYPE":0,"CLASSIFICATION_TYPE":"U","NORAD_CAT_ID":27424,"ELEMENT_SET_NO":999,"REV_AT_EPOCH":7912,"BSTAR":0.00010942,"MEAN_MOTION_DOT":4.5e-6,"MEAN_MOTION_DDOT":0},{"OBJECT_NAME":"TDRS 10","OBJECT_ID":"2002-055A","EPOCH":"2022-08-17T03:25:53.390784","MEAN_MOTION":1.00271037,"ECCENTRICITY":0.0006609,"INCLINATION":8.3101,"RA_OF_ASC_NODE":49.6192,"ARG_OF_PERICENTER":354.3415,"MEAN_ANOMALY":161.8763,"EPHEMERIS_TYPE":0,"CLASSIFICATION_TYPE":"U","NORAD_CAT_ID":27566,"ELEMENT_SET_NO":999,"REV_AT_EPOCH":7218,"BSTAR":0,"MEAN_MOTION_DOT":7.7e-7,"MEAN_MOTION_DDOT":0},{"OBJECT_NAME":"SORCE","OBJECT_ID":"2003-004A","EPOCH":"2022-08-17T11:03:16.064640","MEAN_MOTION":14.90039659,"ECCENTRICITY":0.0023183,"INCLINATION":39.994,"RA_OF_ASC_NODE":236.8146,"ARG_OF_PERICENTER":184.5457,"MEAN_ANOMALY":175.5125,"EPHEMERIS_TYPE":0,"CLASSIFICATION_TYPE":"U","NORAD_CAT_ID":27651,"ELEMENT_SET_NO":999,"REV_AT_EPOCH":6219,"BSTAR":0.00010637,"MEAN_MOTION_DOT":9.12e-6,"MEAN_MOTION_DDOT":0},{"OBJECT_NAME":"AURA","OBJECT_ID":"2004-026A","EPOCH":"2022-08-16T20:33:46.072800","MEAN_MOTION":14.57114957,"ECCENTRICITY":0.0001581,"INCLINATION":98.2109,"RA_OF_ASC_NODE":171.3307,"ARG_OF_PERICENTER":81.4402,"MEAN_ANOMALY":278.6976,"EPHEMERIS_TYPE":0,"CLASSIFICATION_TYPE":"U","NORAD_CAT_ID":28376,"ELEMENT_SET_NO":999,"REV_AT_EPOCH":96202,"BSTAR":0.00010348,"MEAN_MOTION_DOT":4.21e-6,"MEAN_MOTION_DDOT":0},{"OBJECT_NAME":"SWIFT","OBJECT_ID":"2004-047A","EPOCH":"2022-08-17T03:42:47.263680","MEAN_MOTION":15.06716364,"ECCENTRICITY":0.0010456,"INCLINATION":20.5558,"RA_OF_ASC_NODE":244.1675,"ARG_OF_PERICENTER":350.2947,"MEAN_ANOMALY":9.7284,"EPHEMERIS_TYPE":0,"CLASSIFICATION_TYPE":"U","NORAD_CAT_ID":28485,"ELEMENT_SET_NO":999,"REV_AT_EPOCH":97279,"BSTAR":0.00016405,"MEAN_MOTION_DOT":2.968e-5,"MEAN_MOTION_DDOT":0},{"OBJECT_NAME":"THEMIS A","OBJECT_ID":"2007-004A","EPOCH":"2022-08-16T07:29:52.851264","MEAN_MOTION":0.87836304,"ECCENTRICITY":0.8380827,"INCLINATION":13.871,"RA_OF_ASC_NODE":339.4483,"ARG_OF_PERICENTER":177.5948,"MEAN_ANOMALY":195.4502,"EPHEMERIS_TYPE":0,"CLASSIFICATION_TYPE":"U","NORAD_CAT_ID":30580,"ELEMENT_SET_NO":999,"REV_AT_EPOCH":5365,"BSTAR":0.036901,"MEAN_MOTION_DOT":-5.32e-6,"MEAN_MOTION_DDOT":0}]